NORAD_CAT_ID,OBJECT_NAME,OBJECT_TYPE,EPOCH,MEAN_MOTION,ECCENTRICITY,INCLINATION,RA_OF_ASC_NODE,ARG_OF_PERICENTER,MEAN_ANOMALY,BSTAR,MEAN_MOTION_DOT,MEAN_MOTION_DDOT,TLE_LINE0,TLE_LINE1,TLE_LINE2,SEMIMAJOR_AXIS,PERIOD,APOGEE,PERIGEE,DECAYED
37853,RAX-2,PAYLOAD,2022-07-28 20:14:05,15.09748291,0.0151974,101.7112,335.9255,323.6531,35.4436,0.00013494,2.697e-05,0.0,0 RAX-2,1 37853U 11061D   22209.84311824  .00002697  00000-0  13494-3 0  9999,2 37853 101.7112 335.9255 0151974 323.6531  35.4436 15.09748291587419,6915.105,95.38,642.062,431.879,0.0
37853,RAX-2,PAYLOAD,2022-07-29 07:22:06,15.09750372,0.0151982,101.7113,336.63199999999995,322.2687,36.7945,0.00013046,2.602e-05,0.0,0 RAX-2,1 37853U 11061D   22210.30702002  .00002602  00000-0  13046-3 0  9993,2 37853 101.7113 336.6320 0151982 322.2687  36.7945 15.09750372587004,6915.099,95.38,642.061,431.867,0.0
37853,RAX-2,PAYLOAD,2022-07-29 15:19:15,15.0975217,0.0151975,101.7114,337.1367,321.2795,37.7602,0.00013174,2.629e-05,0.0,0 RAX-2,1 37853U 11061D   22210.63837803  .00002629  00000-0  13174-3 0  9998,2 37853 101.7114 337.1367 0151975 321.2795  37.7602 15.09752170587057,6915.094,95.38,642.0509999999998,431.867,0.0
37853,RAX-2,PAYLOAD,2022-07-30 00:51:51,15.09754446,0.0151964,101.7115,337.7423,320.0918,38.9202,0.00013437,2.685e-05,0.0,0 RAX-2,1 37853U 11061D   22211.03600711  .00002685  00000-0  13437-3 0  9993,2 37853 101.7115 337.7423 0151964 320.0918  38.9202 15.09754446587595,6915.087,95.38,642.036,431.867,0.0
37853,RAX-2,PAYLOAD,2022-07-30 13:35:17,15.09756817,0.0151949,101.7117,338.5497,318.5077,40.468,0.00012866,2.564e-05,0.0,0 RAX-2,1 37853U 11061D   22211.56617870  .00002564  00000-0  12866-3 0  9996,2 37853 101.7117 338.5497 0151949 318.5077  40.4680 15.09756817587196,6915.079000000002,95.38,642.018,431.871,0.0
37853,RAX-2,PAYLOAD,2022-07-30 15:10:43,15.09757161,0.0151946,101.7117,338.6506,318.3098,40.6615,0.00012843,2.559e-05,0.0,0 RAX-2,1 37853U 11061D   22211.63245007  .00002559  00000-0  12843-3 0  9992,2 37853 101.7117 338.6506 0151946 318.3098  40.6615 15.09757161587201,6915.078,95.38,642.015,431.872,0.0
37853,RAX-2,PAYLOAD,2022-07-31 03:54:10,15.09759224,0.0151941,101.7118,339.4581,316.7269,42.209,0.000118,2.337e-05,0.0,0 RAX-2,1 37853U 11061D   22212.16262071  .00002337  00000-0  11800-3 0  9997,2 37853 101.7118 339.4581 0151941 316.7269  42.2090 15.09759224587286,6915.071999999999,95.379,642.005,431.869,0.0
37853,RAX-2,PAYLOAD,2022-07-31 15:02:11,15.09761532,0.0151921,101.7119,340.1647,315.3417,43.5641,0.00011635,2.302e-05,0.0,0 RAX-2,1 37853U 11061D   22212.62651941  .00002302  00000-0  11635-3 0  9994,2 37853 101.7119 340.1647 0151921 315.3417  43.5641 15.09761532587356,6915.065,95.379,641.984,431.876,0.0
37853,RAX-2,PAYLOAD,2022-08-01 06:56:29,15.09764971,0.0151906,101.7119,341.1741,313.3633,45.5007,0.00011584,2.291e-05,0.0,0 RAX-2,1 37853U 11061D   22213.28923070  .00002291  00000-0  11584-3 0  9992,2 37853 101.7119 341.1741 0151906 313.3633  45.5007 15.09764971587935,6915.055,95.379,641.9630000000002,431.876,0.0
37853,RAX-2,PAYLOAD,2022-08-01 16:29:04,15.09766761,0.0151894,101.712,341.7798,312.1766,46.663,0.00011336,2.238e-05,0.0,0 RAX-2,1 37853U 11061D   22213.68685711  .00002238  00000-0  11336-3 0  9999,2 37853 101.7120 341.7798 0151894 312.1766  46.6630 15.09766761587512,6915.049,95.379,641.95,431.879,0.0
37853,RAX-2,PAYLOAD,2022-08-02 06:47:56,15.09769651,0.0151886,101.7119,342.6882,310.3962,48.4078,0.00011208,2.211e-05,0.0,0 RAX-2,1 37853U 11061D   22214.28329576  .00002211  00000-0  11208-3 0  9999,2 37853 101.7119 342.6882 0151886 310.3962  48.4078 15.09769651587600,6915.04,95.379,641.935,431.875,0.0
37853,RAX-2,PAYLOAD,2022-08-03 01:53:06,15.09773929,0.015186700000000003,101.7119,343.8995,308.0219,50.7366,0.00011453,2.263e-05,0.0,0 RAX-2,1 37853U 11061D   22215.07854551  .00002263  00000-0  11453-3 0  9992,2 37853 101.7119 343.8995 0151867 308.0219  50.7366 15.09773929588202,6915.026999999999,95.379,641.909,431.876,0.0
37853,RAX-2,PAYLOAD,2022-08-03 08:14:49,15.09775554,0.0151866,101.7118,344.3033,307.2298,51.514,0.00011651,2.305e-05,0.0,0 RAX-2,1 37853U 11061D   22215.34362826  .00002305  00000-0  11651-3 0  9998,2 37853 101.7118 344.3033 0151866 307.2298  51.5140 15.09775554587762,6915.022,95.378,641.903,431.872,0.0
37853,RAX-2,PAYLOAD,2022-08-03 16:11:58,15.09777001,0.0151856,101.7118,344.80800000000005,306.2409,52.485,0.00011467,2.266e-05,0.0,0 RAX-2,1 37853U 11061D   22215.67498185  .00002266  00000-0  11467-3 0  9993,2 37853 101.7118 344.8080 0151856 306.2409  52.4850 15.09777001587814,6915.018,95.378,641.8919999999998,431.874,0.0
37853,RAX-2,PAYLOAD,2022-08-04 04:55:24,15.09779193,0.0151855,101.7117,345.6155,304.6571,54.0408,0.00010846,2.134e-05,0.0,0 RAX-2,1 37853U 11061D   22216.20514679  .00002134  00000-0  10846-3 0  9994,2 37853 101.7117 345.6155 0151855 304.6571  54.0408 15.09779193588379,6915.011,95.378,641.884,431.86800000000005,0.0
37853,RAX-2,PAYLOAD,2022-08-04 08:06:16,15.09779695,0.0151857,101.7117,345.8174,304.2607,54.4303,0.0001064,2.09e-05,0.0,0 RAX-2,1 37853U 11061D   22216.33768798  .00002090  00000-0  10640-3 0  9994,2 37853 101.7117 345.8174 0151857 304.2607  54.4303 15.09779695587914,6915.01,95.378,641.884,431.865,0.0
37853,RAX-2,PAYLOAD,2022-08-04 16:03:25,15.09781183,0.015184799999999997,101.7117,346.3221,303.2719,55.4024,0.00010596,2.081e-05,0.0,0 RAX-2,1 37853U 11061D   22216.66904079  .00002081  00000-0  10596-3 0  9994,2 37853 101.7117 346.3221 0151848 303.2719  55.4024 15.09781183587967,6915.005,95.378,641.873,431.867,0.0
37853,RAX-2,PAYLOAD,2022-08-05 07:57:42,15.09785948,0.0151845,101.7115,347.3314,301.2933,57.3487,0.00012838,2.559e-05,0.0,0 RAX-2,1 37853U 11061D   22217.33174497  .00002559  00000-0  12838-3 0  9993,2 37853 101.7115 347.3314 0151845 301.2933  57.3487 15.09785948588061,6914.991,95.378,641.856,431.855,0.0
37853,RAX-2,PAYLOAD,2022-08-05 15:54:51,15.09787504,0.0151843,101.7115,347.8361,300.3026,58.3239,0.00012915,2.575e-05,0.0,0 RAX-2,1 37853U 11061D   22217.66309692  .00002575  00000-0  12915-3 0  9990,2 37853 101.7115 347.8361 0151843 300.3026  58.3239 15.09787504588111,6914.986,95.378,641.85,431.852,0.0
37853,RAX-2,PAYLOAD,2022-08-06 07:49:09,15.09791336,0.0151844,101.7115,348.8454,298.3239,60.2729,0.00013818,2.768e-05,0.0,0 RAX-2,1 37853U 11061D   22218.32579958  .00002768  00000-0  13818-3 0  9995,2 37853 101.7115 348.8454 0151844 298.3239  60.2729 15.09791336588213,6914.974,95.377,641.839,431.839,0.0
37853,RAX-2,PAYLOAD,2022-08-06 15:46:17,15.09793944,0.0151837,101.7115,349.3501,297.3345,61.2482,0.00015296,3.083e-05,0.0,0 RAX-2,1 37853U 11061D   22218.65715044  .00003083  00000-0  15296-3 0  9992,2 37853 101.7115 349.3501 0151837 297.3345  61.2482 15.09793944588260,6914.9659999999985,95.377,641.826,431.836,0.0
37853,RAX-2,PAYLOAD,2022-08-07 07:40:35,15.097984,0.015184799999999997,101.7115,350.3595,295.3606,63.195,0.00016653,3.372e-05,0.0,0 RAX-2,1 37853U 11061D   22219.31985093  .00003372  00000-0  16653-3 0  9998,2 37853 101.7115 350.3595 0151848 295.3606  63.1950 15.09798400588369,6914.9519999999975,95.377,641.82,431.815,0.0
37853,RAX-2,PAYLOAD,2022-08-07 20:24:00,15.09805533,0.015183000000000004,101.7116,351.167,293.7777,64.7579,0.00021839,4.478e-05,0.0,0 RAX-2,1 37853U 11061D   22219.85000901  .00004478  00000-0  21839-3 0  9993,2 37853 101.7116 351.1670 0151830 293.7777  64.7579 15.09805533588444,6914.931,95.377,641.785,431.806,0.0
37853,RAX-2,PAYLOAD,2022-08-08 01:10:17,15.09806831,0.015186000000000003,101.7112,351.4697,293.1865,65.3415,0.00024445,5.034e-05,0.0,0 RAX-2,1 37853U 11061D   22220.04881837  .00005034  00000-0  24445-3 0  9996,2 37853 101.7112 351.4697 0151860 293.1865  65.3415 15.09806831588951,6914.927,95.376,641.802,431.782,0.0
37853,RAX-2,PAYLOAD,2022-08-08 07:32:00,15.09811957,0.0151853,101.7113,351.8734,292.3973,66.1213,0.00029442,6.101e-05,0.0,0 RAX-2,1 37853U 11061D   22220.31389617  .00006101  00000-0  29442-3 0  9993,2 37853 101.7113 351.8734 0151853 292.3973  66.1213 15.09811957588513,6914.911,95.376,641.781,431.771,0.0
37853,RAX-2,PAYLOAD,2022-08-08 15:29:09,15.09815234,0.0151834,101.7114,352.3781,291.4061,67.1013,0.00029571,6.129e-05,0.0,0 RAX-2,1 37853U 11061D   22220.64524314  .00006129  00000-0  29571-3 0  9997,2 37853 101.7114 352.3781 0151834 291.4061  67.1013 15.09815234588565,6914.901,95.376,641.758,431.774,0.0
37853,RAX-2,PAYLOAD,2022-08-09 07:23:25,15.09823467,0.0151804,101.7115,353.3874,289.4307,69.0557,0.00030941,6.422e-05,0.0,0 RAX-2,1 37853U 11061D   22221.30793423  .00006422  00000-0  30941-3 0  9999,2 37853 101.7115 353.3874 0151804 289.4307  69.0557 15.09823467588669,6914.876,95.375,641.712,431.77,0.0
37853,RAX-2,PAYLOAD,2022-08-10 07:14:49,15.09834601,0.0151732,101.712,354.9016,286.4641,71.9946,0.00025406,5.241e-05,0.0,0 RAX-2,1 37853U 11061D   22222.30196401  .00005241  00000-0  25406-3 0  9991,2 37853 101.7120 354.9016 0151732 286.4641  71.9946 15.09834601589294,6914.842,95.375,641.627,431.787,0.0
37853,RAX-2,PAYLOAD,2022-08-11 05:30:47,15.09844615,0.015168,101.7124,356.3149,283.6917,74.745,0.00022439,4.609e-05,0.0,0 RAX-2,1 37853U 11061D   22223.22971906  .00004609  00000-0  22439-3 0  9994,2 37853 101.7124 356.3149 0151680 283.6917  74.7450 15.09844615588957,6914.811,95.374,641.56,431.793,0.0
37853,RAX-2,PAYLOAD,2022-08-11 13:27:55,15.09847715,0.0151667,101.7126,356.8197,282.7013,75.7284,0.00021771,4.467e-05,0.0,0 RAX-2,1 37853U 11061D   22223.56105902  .00004467  00000-0  21771-3 0  9996,2 37853 101.7126 356.8197 0151667 282.7013  75.7284 15.09847715589488,6914.802,95.374,641.5419999999998,431.792,0.0
37853,RAX-2,PAYLOAD,2022-08-12 08:33:01,15.09858431,0.0151639,101.7129,358.0311,280.321,78.0939,0.00025655,5.297e-05,0.0,0 RAX-2,1 37853U 11061D   22224.35627137  .00005297  00000-0  25655-3 0  9990,2 37853 101.7129 358.0311 0151639 280.3210  78.0939 15.09858431589126,6914.769,95.373,641.489,431.779,0.0
